{"type": "FeatureCollection", "features": [ {"type": "Feature", "properties": {"norad_id": 30252, "name": "FENGYUN 1C DEB", "group": "fengyun-1c-debris", "lat": 79.40857586415008, "lon": -51.706847109099, "alt_km": 895.0690737403966, "timestamp": "2025-12-14T16:47:40.958615+00:00", "meta": {"OBJECT_NAME": "FENGYUN 1C DEB", "OBJECT_ID": "1999-025XM", "EPOCH": "2025-12-13T23:38:03.876576", "MEAN_MOTION": 14.09712779, "ECCENTRICITY": 0.00659695, "INCLINATION": 98.7436, "RA_OF_ASC_NODE": 2.9874, "ARG_OF_PERICENTER": 238.0642, "MEAN_ANOMALY": 179.6669, "EPHEMERIS_TYPE": 0, "CLASSIFICATION_TYPE": "U", "NORAD_CAT_ID": 30252, "ELEMENT_SET_NO": 999, "REV_AT_EPOCH": 96983, "BSTAR": 0.00063628775, "MEAN_MOTION_DOT": 1.096e-05, "MEAN_MOTION_DDOT": 0}, "tle": {"line1": "1 30252U 99025XM  25347.98476709  .00001096  00000+0  63629-3 0  9992", "line2": "2 30252  98.7436   2.9874 0065969 238.0642 179.6669 14.09712779969837"}}, "geometry": {"type": "Point", "coordinates": [-51.706847109099, 79.40857586415008]}}, {"type": "Feature", "properties": {"norad_id": 30253, "name": "FENGYUN 1C DEB", "group": "fengyun-1c-debris", "lat": -21.95304179988634, "lon": 80.15536331368585, "alt_km": 904.6243676324611, "timestamp": "2025-12-14T16:47:40.958625+00:00", "meta": {"OBJECT_NAME": "FENGYUN 1C DEB", "OBJECT_ID": "1999-025XN", "EPOCH": "2025-12-13T18:44:12.799680", "MEAN_MOTION": 13.73185885, "ECCENTRICITY": 0.02213727, "INCLINATION": 98.7517, "RA_OF_ASC_NODE": 75.7544, "ARG_OF_PERICENTER": 38.4372, "MEAN_ANOMALY": 80.6001, "EPHEMERIS_TYPE": 0, "CLASSIFICATION_TYPE": "U", "NORAD_CAT_ID": 30253, "ELEMENT_SET_NO": 999, "REV_AT_EPOCH": 94028, "BSTAR": 0.0021723301, "MEAN_MOTION_DOT": 2.361e-05, "MEAN_MOTION_DDOT": 0}, "tle": {"line1": "1 30253U 99025XN  25347.78070370  .00002361  00000+0  21723-2 0  9999", "line2": "2 30253  98.7517  75.7544 0221372  38.4372  80.6001 13.73185885940285"}}, "geometry": {"type": "Point", "coordinates": [80.15536331368585, -21.95304179988634]}}, {"type": "Feature", "properties": {"norad_id": 30257, "name": "FENGYUN 1C DEB", "group": "fengyun-1c-debris", "lat": 79.4013500763667, "lon": -68.1801857446117, "alt_km": 810.3277808634111, "timestamp": "2025-12-14T16:47:40.958635+00:00", "meta": {"OBJECT_NAME": "FENGYUN 1C DEB", "OBJECT_ID": "1999-025XS", "EPOCH": "2025-12-13T23:37:32.049408", "MEAN_MOTION": 14.0972462, "ECCENTRICITY": 0.00596938, "INCLINATION": 98.7497, "RA_OF_ASC_NODE": 346.5141, "ARG_OF_PERICENTER": 95.8211, "MEAN_ANOMALY": 319.7681, "EPHEMERIS_TYPE": 0, "CLASSIFICATION_TYPE": "U", "NORAD_CAT_ID": 30257, "ELEMENT_SET_NO": 999, "REV_AT_EPOCH": 97235, "BSTAR": 0.00014470971, "MEAN_MOTION_DOT": 2.16e-06, "MEAN_MOTION_DDOT": 0}, "tle": {"line1": "1 30257U 99025XS  25347.98439872  .00000216  00000+0  14471-3 0  9991", "line2": "2 30257  98.7497 346.5141 0059693  95.8211 319.7681 14.09724620972351"}}, "geometry": {"type": "Point", "coordinates": [-68.1801857446117, 79.4013500763667]}}, {"type": "Feature", "properties": {"norad_id": 30259, "name": "FENGYUN 1C DEB", "group": "fengyun-1c-debris", "lat": 64.0397981612645, "lon": -177.9654391240771, "alt_km": 878.510326333826, "timestamp": "2025-12-14T16:47:40.958645+00:00", "meta": {"OBJECT_NAME": "FENGYUN 1C DEB", "OBJECT_ID": "1999-025XU", "EPOCH": "2025-12-13T12:41:00.088800", "MEAN_MOTION": 14.51510886, "ECCENTRICITY": 0.02420092, "INCLINATION": 98.7617, "RA_OF_ASC_NODE": 199.2803, "ARG_OF_PERICENTER": 265.8984, "MEAN_ANOMALY": 161.739, "EPHEMERIS_TYPE": 0, "CLASSIFICATION_TYPE": "U", "NORAD_CAT_ID": 30259, "ELEMENT_SET_NO": 999, "REV_AT_EPOCH": 99486, "BSTAR": 0.00058692882, "MEAN_MOTION_DOT": 3.374e-05, "MEAN_MOTION_DDOT": 0}, "tle": {"line1": "1 30259U 99025XU  25347.52847325  .00003374  00000+0  58693-3 0  9991", "line2": "2 30259  98.7617 199.2803 0242009 265.8984 161.7390 14.51510886994862"}}, "geometry": {"type": "Point", "coordinates": [-177.9654391240771, 64.0397981612645]}}, {"type": "Feature", "properties": {"norad_id": 30263, "name": "FENGYUN 1C DEB", "group": "fengyun-1c-debris", "lat": -16.278938258172715, "lon": -78.79373539040469, "alt_km": 991.0476176140519, "timestamp": "2025-12-14T16:47:40.958655+00:00", "meta": {"OBJECT_NAME": "FENGYUN 1C DEB", "OBJECT_ID": "1999-025XY", "EPOCH": "2025-12-13T07:33:51.446592", "MEAN_MOTION": 14.01477387, "ECCENTRICITY": 0.01447693, "INCLINATION": 98.935, "RA_OF_ASC_NODE": 102.4835, "ARG_OF_PERICENTER": 358.6512, "MEAN_ANOMALY": 56.41, "EPHEMERIS_TYPE": 0, "CLASSIFICATION_TYPE": "U", "NORAD_CAT_ID": 30263, "ELEMENT_SET_NO": 999, "REV_AT_EPOCH": 96033, "BSTAR": 0.0014580194, "MEAN_MOTION_DOT": 2.37e-05, "MEAN_MOTION_DDOT": 0}, "tle": {"line1": "1 30263U 99025XY  25347.31517878  .00002370  00000+0  14580-2 0  9991", "line2": "2 30263  98.9350 102.4835 0144769 358.6512  56.4100 14.01477387960333"}}, "geometry": {"type": "Point", "coordinates": [-78.79373539040469, -16.278938258172715]}}, {"type": "Feature", "properties": {"norad_id": 30264, "name": "FENGYUN 1C DEB", "group": "fengyun-1c-debris", "lat": 68.0341515255903, "lon": 20.758790776870335, "alt_km": 926.4268059077313, "timestamp": "2025-12-14T16:47:40.958665+00:00", "meta": {"OBJECT_NAME": "FENGYUN 1C DEB", "OBJECT_ID": "1999-025XZ", "EPOCH": "2025-12-13T15:36:36.980064", "MEAN_MOTION": 14.07642595, "ECCENTRICITY": 0.01071869, "INCLINATION": 98.9702, "RA_OF_ASC_NODE": 42.7717, "ARG_OF_PERICENTER": 284.8151, "MEAN_ANOMALY": 229.7604, "EPHEMERIS_TYPE": 0, "CLASSIFICATION_TYPE": "U", "NORAD_CAT_ID": 30264, "ELEMENT_SET_NO": 999, "REV_AT_EPOCH": 96570, "BSTAR": 0.0014603692, "MEAN_MOTION_DOT": 2.555e-05, "MEAN_MOTION_DDOT": 0}, "tle": {"line1": "1 30264U 99025XZ  25347.65042801  .00002555  00000+0  14604-2 0  9990", "line2": "2 30264  98.9702  42.7717 0107186 284.8151 229.7604 14.07642595965702"}}, "geometry": {"type": "Point", "coordinates": [20.758790776870335, 68.0341515255903]}}, {"type": "Feature", "properties": {"norad_id": 30265, "name": "FENGYUN 1C DEB", "group": "fengyun-1c-debris", "lat": 81.29116684524871, "lon": 13.401581850819513, "alt_km": 687.0020610457905, "timestamp": "2025-12-14T16:47:40.958675+00:00", "meta": {"OBJECT_NAME": "FENGYUN 1C DEB", "OBJECT_ID": "1999-025YA", "EPOCH": "2025-12-13T06:04:56.294112", "MEAN_MOTION": 14.58647023, "ECCENTRICITY": 0.00282892, "INCLINATION": 98.6638, "RA_OF_ASC_NODE": 96.4001, "ARG_OF_PERICENTER": 11.8069, "MEAN_ANOMALY": 46.3701, "EPHEMERIS_TYPE": 0, "CLASSIFICATION_TYPE": "U", "NORAD_CAT_ID": 30265, "ELEMENT_SET_NO": 999, "REV_AT_EPOCH": 98409, "BSTAR": 0.0040396856, "MEAN_MOTION_DOT": 0.00018924, "MEAN_MOTION_DDOT": 0}, "tle": {"line1": "1 30265U 99025YA  25347.25342933  .00018924  00000+0  40397-2 0  9991", "line2": "2 30265  98.6638  96.4001 0028289  11.8069  46.3701 14.58647023984093"}}, "geometry": {"type": "Point", "coordinates": [13.401581850819513, 81.29116684524871]}}, {"type": "Feature", "properties": {"norad_id": 30266, "name": "FENGYUN 1C DEB", "group": "fengyun-1c-debris", "lat": 23.309988386890467, "lon": -123.12784173111463, "alt_km": 846.9778931511337, "timestamp": "2025-12-14T16:47:40.958685+00:00", "meta": {"OBJECT_NAME": "FENGYUN 1C DEB", "OBJECT_ID": "1999-025YB", "EPOCH": "2025-12-13T16:52:49.840896", "MEAN_MOTION": 14.15089192, "ECCENTRICITY": 0.00825887, "INCLINATION": 99.043, "RA_OF_ASC_NODE": 51.9278, "ARG_OF_PERICENTER": 63.3003, "MEAN_ANOMALY": 58.7314, "EPHEMERIS_TYPE": 0, "CLASSIFICATION_TYPE": "U", "NORAD_CAT_ID": 30266, "ELEMENT_SET_NO": 999, "REV_AT_EPOCH": 96803, "BSTAR": 0.0016757076, "MEAN_MOTION_DOT": 3.314e-05, "MEAN_MOTION_DDOT": 0}, "tle": {"line1": "1 30266U 99025YB  25347.70335464  .00003314  00000+0  16757-2 0  9993", "line2": "2 30266  99.0430  51.9278 0082588  63.3003  58.7314 14.15089192968036"}}, "geometry": {"type": "Point", "coordinates": [-123.12784173111463, 23.309988386890467]}}, {"type": "Feature", "properties": {"norad_id": 30267, "name": "FENGYUN 1C DEB", "group": "fengyun-1c-debris", "lat": 50.289834949297045, "lon": -109.31336816502552, "alt_km": 821.8608955864293, "timestamp": "2025-12-14T16:47:40.958695+00:00", "meta": {"OBJECT_NAME": "FENGYUN 1C DEB", "OBJECT_ID": "1999-025YC", "EPOCH": "2025-12-13T18:15:27.634464", "MEAN_MOTION": 14.23615918, "ECCENTRICITY": 0.00591432, "INCLINATION": 98.8501, "RA_OF_ASC_NODE": 58.9295, "ARG_OF_PERICENTER": 240.1767, "MEAN_ANOMALY": 119.3523, "EPHEMERIS_TYPE": 0, "CLASSIFICATION_TYPE": "U", "NORAD_CAT_ID": 30267, "ELEMENT_SET_NO": 999, "REV_AT_EPOCH": 97309, "BSTAR": 0.0019012427, "MEAN_MOTION_DOT": 4.368e-05, "MEAN_MOTION_DDOT": 0}, "tle": {"line1": "1 30267U 99025YC  25347.76073651  .00004368  00000+0  19012-2 0  9994", "line2": "2 30267  98.8501  58.9295 0059143 240.1767 119.3523 14.23615918973090"}}, "geometry": {"type": "Point", "coordinates": [-109.31336816502552, 50.289834949297045]}}, {"type": "Feature", "properties": {"norad_id": 30270, "name": "FENGYUN 1C DEB", "group": "fengyun-1c-debris", "lat": 30.974137701446352, "lon": -2.9132333646721023, "alt_km": 856.162223711055, "timestamp": "2025-12-14T16:47:40.958705+00:00", "meta": {"OBJECT_NAME": "FENGYUN 1C DEB", "OBJECT_ID": "1999-025YF", "EPOCH": "2025-12-13T23:55:32.750976", "MEAN_MOTION": 14.11271714, "ECCENTRICITY": 0.00074916, "INCLINATION": 98.7023, "RA_OF_ASC_NODE": 1.6804, "ARG_OF_PERICENTER": 155.7637, "MEAN_ANOMALY": 266.7751, "EPHEMERIS_TYPE": 0, "CLASSIFICATION_TYPE": "U", "NORAD_CAT_ID": 30270, "ELEMENT_SET_NO": 999, "REV_AT_EPOCH": 97379, "BSTAR": 0.00017554094, "MEAN_MOTION_DOT": 2.74e-06, "MEAN_MOTION_DDOT": 0}, "tle": {"line1": "1 30270U 99025YF  25347.99690684  .00000274  00000+0  17554-3 0  9996", "line2": "2 30270  98.7023   1.6804 0007491 155.7637 266.7751 14.11271714973795"}}, "geometry": {"type": "Point", "coordinates": [-2.9132333646721023, 30.974137701446352]}}]}